[{"OBJECT_NAME":"STARLINK-35611","OBJECT_ID":"2025-259F","EPOCH":"2026-03-09T19:59:39.060672","MEAN_MOTION":15.27592891,"ECCENTRICITY":0.00018065,"INCLINATION":43.0003,"RA_OF_ASC_NODE":273.5007,"ARG_OF_PERICENTER":274.1429,"MEAN_ANOMALY":85.9216,"EPHEMERIS_TYPE":0,"CLASSIFICATION_TYPE":"U","NORAD_CAT_ID":66427,"ELEMENT_SET_NO":999,"REV_AT_EPOCH":1951,"BSTAR":0.001013964,"MEAN_MOTION_DOT":0.00027756,"MEAN_MOTION_DDOT":0},{"OBJECT_NAME":"PUCP-SAT 1","OBJECT_ID":"2013-066AC","EPOCH":"2026-03-09T22:02:13.763904","MEAN_MOTION":15.29426022,"ECCENTRICITY":0.00136836,"INCLINATION":97.5787,"RA_OF_ASC_NODE":61.0032,"ARG_OF_PERICENTER":300.1183,"MEAN_ANOMALY":59.87,"EPHEMERIS_TYPE":0,"CLASSIFICATION_TYPE":"U","NORAD_CAT_ID":39442,"ELEMENT_SET_NO":999,"REV_AT_EPOCH":66907,"BSTAR":0.00088755185,"MEAN_MOTION_DOT":0.00025373,"MEAN_MOTION_DDOT":0}]
